[{"OBJECT_NAME":"STARLINK-2285","OBJECT_ID":"2021-024AU","EPOCH":"2026-03-09T21:28:20.577504","MEAN_MOTION":15.30182651,"ECCENTRICITY":9.243e-5,"INCLINATION":53.1579,"RA_OF_ASC_NODE":305.9113,"ARG_OF_PERICENTER":99.8107,"MEAN_ANOMALY":260.2998,"EPHEMERIS_TYPE":0,"CLASSIFICATION_TYPE":"U","NORAD_CAT_ID":48019,"ELEMENT_SET_NO":999,"REV_AT_EPOCH":27495,"BSTAR":-7.2180295e-5,"MEAN_MOTION_DOT":-2.495e-5,"MEAN_MOTION_DDOT":0},{"OBJECT_NAME":"GHGSAT-C4","OBJECT_ID":"2022-057Q","EPOCH":"2026-03-09T22:58:28.655904","MEAN_MOTION":15.3293316,"ECCENTRICITY":0.0007552,"INCLINATION":97.6357,"RA_OF_ASC_NODE":210.0193,"ARG_OF_PERICENTER":100.0033,"MEAN_ANOMALY":260.2061,"EPHEMERIS_TYPE":0,"CLASSIFICATION_TYPE":"U","NORAD_CAT_ID":52746,"ELEMENT_SET_NO":999,"REV_AT_EPOCH":21033,"BSTAR":0.00030289005,"MEAN_MOTION_DOT":9.562e-5,"MEAN_MOTION_DDOT":0}]
